SITRO-AIS 51            
1 59062U 24039M   24155.50691049  .00021300  00000+0  78698-3 0  9997
2 59062  97.3906 117.6897 0014347 264.1780  95.7823 15.27655960 14515
SITRO-AIS 52            
1 59063U 24039N   24155.50189148  .00021953  00000+0  80893-3 0  9994
2 59063  97.3907 117.6969 0014213 263.9406  96.0213 15.27739704 14517
SITRO-AIS 25            
1 59066U 24039R   24155.51078102  .00009070  00000+0  86654-3 0  9992
2 59066  95.4032  88.0977 0173620  30.8212 330.3062 14.82623394 14087
SITRO-AIS 26            
1 59067U 24039S   24155.51016390  .00008850  00000+0  84623-3 0  9993
2 59067  95.4031  88.0976 0173476  30.8521 330.2755 14.82610922 14089
SITRO-AIS 27            
1 59068U 24039T   24155.50242030  .00009465  00000+0  90207-3 0  9993
2 59068  95.4034  88.1075 0173154  30.7325 330.3897 14.82759213 14083
SITRO-AIS 28            
1 59071U 24039U   24155.50023516  .00009447  00000+0  89991-3 0  9991
2 59071  95.4034  88.1104 0173006  30.7237 330.3973 14.82796345 14080
